{
  "type": "FeatureCollection",
  "features": [
    {
      "type": "Feature",
      "properties": {
        "norad_id": 34481,
        "name": "COSMOS 2251 DEB",
        "group": "cosmos-2251-debris",
        "lat": 53.190248987205635,
        "lon": -165.53700155608433,
        "alt_km": 774.0561196369099,
        "timestamp": "2025-12-21T16:47:55.133432+00:00",
        "meta_object_name": "COSMOS 2251 DEB",
        "meta_object_id": "1993-036UA",
        "meta_epoch": "2025-12-21T04:45:38.329920",
        "meta_mean_motion": 14.32578125,
        "meta_eccentricity": 0.0070424,
        "meta_inclination": 73.9791,
        "meta_ra_of_asc_node": 37.9595,
        "meta_arg_of_pericenter": 210.7447,
        "meta_mean_anomaly": 207.8165,
        "meta_ephemeris_type": 0,
        "meta_classification_type": "U",
        "meta_norad_cat_id": 34481,
        "meta_element_set_no": 999,
        "meta_rev_at_epoch": 87570,
        "meta_bstar": 0.00043382265,
        "meta_mean_motion_dot": 1.184e-05,
        "meta_mean_motion_ddot": 0,
        "tle_line1": "1 34481U 93036UA  25355.19836030  .00001184  00000+0  43382-3 0  9997",
        "tle_line2": "2 34481  73.9791  37.9595 0070424 210.7447 207.8165 14.32578125875702"
      },
      "geometry": {
        "type": "Point",
        "coordinates": [
          -165.53700155608433,
          53.190248987205635
        ]
      }
    },
    {
      "type": "Feature",
      "properties": {
        "norad_id": 34482,
        "name": "COSMOS 2251 DEB",
        "group": "cosmos-2251-debris",
        "lat": 36.09627984508182,
        "lon": -141.71148129031488,
        "alt_km": 681.8117990108467,
        "timestamp": "2025-12-21T16:47:55.133442+00:00",
        "meta_object_name": "COSMOS 2251 DEB",
        "meta_object_id": "1993-036UB",
        "meta_epoch": "2025-12-21T00:50:33.623232",
        "meta_mean_motion": 14.69328358,
        "meta_eccentricity": 0.00445571,
        "meta_inclination": 74.0355,
        "meta_ra_of_asc_node": 207.5283,
        "meta_arg_of_pericenter": 265.9843,
        "meta_mean_anomaly": 216.2862,
        "meta_ephemeris_type": 0,
        "meta_classification_type": "U",
        "meta_norad_cat_id": 34482,
        "meta_element_set_no": 999,
        "meta_rev_at_epoch": 88309,
        "meta_bstar": 0.0010584812,
        "meta_mean_motion_dot": 6.32e-05,
        "meta_mean_motion_ddot": 0,
        "tle_line1": "1 34482U 93036UB  25355.03511138  .00006320  00000+0  10585-2 0  9995",
        "tle_line2": "2 34482  74.0355 207.5283 0044557 265.9843 216.2862 14.69328358883090"
      },
      "geometry": {
        "type": "Point",
        "coordinates": [
          -141.71148129031488,
          36.09627984508182
        ]
      }
    },
    {
      "type": "Feature",
      "properties": {
        "norad_id": 34544,
        "name": "COSMOS 2251 DEB",
        "group": "cosmos-2251-debris",
        "lat": -7.515435605236581,
        "lon": 11.70538522735823,
        "alt_km": 805.6945610202356,
        "timestamp": "2025-12-21T16:47:55.133452+00:00",
        "meta_object_name": "COSMOS 2251 DEB",
        "meta_object_id": "1993-036UE",
        "meta_epoch": "2025-12-20T22:45:44.746848",
        "meta_mean_motion": 13.5466917,
        "meta_eccentricity": 0.0383747,
        "meta_inclination": 73.914,
        "meta_ra_of_asc_node": 190.7401,
        "meta_arg_of_pericenter": 217.6803,
        "meta_mean_anomaly": 268.4727,
        "meta_ephemeris_type": 0,
        "meta_classification_type": "U",
        "meta_norad_cat_id": 34544,
        "meta_element_set_no": 999,
        "meta_rev_at_epoch": 82993,
        "meta_bstar": 0.00030868,
        "meta_mean_motion_dot": 3.15e-06,
        "meta_mean_motion_ddot": 0,
        "tle_line1": "1 34544U 93036UE  25354.94843457  .00000315  00000+0  30868-3 0  9990",
        "tle_line2": "2 34544  73.9140 190.7401 0383747 217.6803 268.4727 13.54669170829936"
      },
      "geometry": {
        "type": "Point",
        "coordinates": [
          11.70538522735823,
          -7.515435605236581
        ]
      }
    },
    {
      "type": "Feature",
      "properties": {
        "norad_id": 34546,
        "name": "COSMOS 2251 DEB",
        "group": "cosmos-2251-debris",
        "lat": -3.8648109037979483,
        "lon": 53.58748272220906,
        "alt_km": 751.8152514498715,
        "timestamp": "2025-12-21T16:47:55.133462+00:00",
        "meta_object_name": "COSMOS 2251 DEB",
        "meta_object_id": "1993-036UG",
        "meta_epoch": "2025-12-21T11:15:10.215072",
        "meta_mean_motion": 14.45444229,
        "meta_eccentricity": 0.0022044,
        "meta_inclination": 74.0298,
        "meta_ra_of_asc_node": 232.9097,
        "meta_arg_of_pericenter": 305.7307,
        "meta_mean_anomaly": 116.4527,
        "meta_ephemeris_type": 0,
        "meta_classification_type": "U",
        "meta_norad_cat_id": 34546,
        "meta_element_set_no": 999,
        "meta_rev_at_epoch": 88152,
        "meta_bstar": 0.00041499,
        "meta_mean_motion_dot": 1.439e-05,
        "meta_mean_motion_ddot": 0,
        "tle_line1": "1 34546U 93036UG  25355.46886823  .00001439  00000+0  41499-3 0  9994",
        "tle_line2": "2 34546  74.0298 232.9097 0022044 305.7307 116.4527 14.45444229881522"
      },
      "geometry": {
        "type": "Point",
        "coordinates": [
          53.58748272220906,
          -3.8648109037979483
        ]
      }
    },
    {
      "type": "Feature",
      "properties": {
        "norad_id": 34547,
        "name": "COSMOS 2251 DEB",
        "group": "cosmos-2251-debris",
        "lat": 15.994812022081788,
        "lon": -101.4278539179751,
        "alt_km": 641.8689020532238,
        "timestamp": "2025-12-21T16:47:55.133472+00:00",
        "meta_object_name": "COSMOS 2251 DEB",
        "meta_object_id": "1993-036UH",
        "meta_epoch": "2025-12-21T06:16:36.725088",
        "meta_mean_motion": 14.72512483,
        "meta_eccentricity": 0.0016393,
        "meta_inclination": 74.0317,
        "meta_ra_of_asc_node": 84.1334,
        "meta_arg_of_pericenter": 162.7845,
        "meta_mean_anomaly": 197.3887,
        "meta_ephemeris_type": 0,
        "meta_classification_type": "U",
        "meta_norad_cat_id": 34547,
        "meta_element_set_no": 999,
        "meta_rev_at_epoch": 88647,
        "meta_bstar": 0.0012277,
        "meta_mean_motion_dot": 7.792e-05,
        "meta_mean_motion_ddot": 0,
        "tle_line1": "1 34547U 93036UH  25355.26153617  .00007792  00000+0  12277-2 0  9990",
        "tle_line2": "2 34547  74.0317  84.1334 0016393 162.7845 197.3887 14.72512483886478"
      },
      "geometry": {
        "type": "Point",
        "coordinates": [
          -101.4278539179751,
          15.994812022081788
        ]
      }
    },
    {
      "type": "Feature",
      "properties": {
        "norad_id": 34553,
        "name": "COSMOS 2251 DEB",
        "group": "cosmos-2251-debris",
        "lat": -50.39942514086866,
        "lon": 154.58284470030313,
        "alt_km": 699.1416968044523,
        "timestamp": "2025-12-21T16:47:55.133482+00:00",
        "meta_object_name": "COSMOS 2251 DEB",
        "meta_object_id": "1993-036UP",
        "meta_epoch": "2025-12-21T12:14:40.587936",
        "meta_mean_motion": 14.57796029,
        "meta_eccentricity": 0.0019103,
        "meta_inclination": 74.0239,
        "meta_ra_of_asc_node": 175.2044,
        "meta_arg_of_pericenter": 251.8858,
        "meta_mean_anomaly": 139.3143,
        "meta_ephemeris_type": 0,
        "meta_classification_type": "U",
        "meta_norad_cat_id": 34553,
        "meta_element_set_no": 999,
        "meta_rev_at_epoch": 88224,
        "meta_bstar": 0.00082619,
        "meta_mean_motion_dot": 3.761e-05,
        "meta_mean_motion_ddot": 0,
        "tle_line1": "1 34553U 93036UP  25355.51019199  .00003761  00000+0  82619-3 0  9991",
        "tle_line2": "2 34553  74.0239 175.2044 0019103 251.8858 139.3143 14.57796029882249"
      },
      "geometry": {
        "type": "Point",
        "coordinates": [
          154.58284470030313,
          -50.39942514086866
        ]
      }
    },
    {
      "type": "Feature",
      "properties": {
        "norad_id": 34554,
        "name": "COSMOS 2251 DEB",
        "group": "cosmos-2251-debris",
        "lat": 43.62661498494182,
        "lon": 86.66365849367641,
        "alt_km": 775.8222548079057,
        "timestamp": "2025-12-21T16:47:55.133493+00:00",
        "meta_object_name": "COSMOS 2251 DEB",
        "meta_object_id": "1993-036UQ",
        "meta_epoch": "2025-12-20T05:48:54.109152",
        "meta_mean_motion": 14.37952739,
        "meta_eccentricity": 0.002333,
        "meta_inclination": 74.0392,
        "meta_ra_of_asc_node": 285.1768,
        "meta_arg_of_pericenter": 346.0878,
        "meta_mean_anomaly": 165.1635,
        "meta_ephemeris_type": 0,
        "meta_classification_type": "U",
        "meta_norad_cat_id": 34554,
        "meta_element_set_no": 999,
        "meta_rev_at_epoch": 87863,
        "meta_bstar": 0.00024183,
        "meta_mean_motion_dot": 7.07e-06,
        "meta_mean_motion_ddot": 0,
        "tle_line1": "1 34554U 93036UQ  25354.24229293  .00000707  00000+0  24183-3 0  9998",
        "tle_line2": "2 34554  74.0392 285.1768 0023330 346.0878 165.1635 14.37952739878631"
      },
      "geometry": {
        "type": "Point",
        "coordinates": [
          86.66365849367641,
          43.62661498494182
        ]
      }
    }
  ]
}